#aV2008  7 20  0  0   .00000000      96 DD+AD WGS84 FIT  NGA
## 1489       .00000000   900.00000000 54667  .0000000000000
+   31     2  3  4  5  6  7  8  9 10 11 12 13 14 15 16 17 18
+         19 20 21 22 23 24 25 26 27 28 29 30 31 32  0  0  0
+          0  0  0  0  0  0  0  0  0  0  0  0  0  0  0  0  0
+          0  0  0  0  0  0  0  0  0  0  0  0  0  0  0  0  0
+          0  0  0  0  0  0  0  0  0  0  0  0  0  0  0  0  0
++         0  0  0  0  0  0  0  0  0  0  0  0  0  0  0  0  0
++         0  0  0  0  0  0  0  0  0  0  0  0  0  0  0  0  0
++         0  0  0  0  0  0  0  0  0  0  0  0  0  0  0  0  0
++         0  0  0  0  0  0  0  0  0  0  0  0  0  0  0  0  0
++         0  0  0  0  0  0  0  0  0  0  0  0  0  0  0  0  0
%c cc cc ccc ccc cccc cccc cccc cccc ccccc ccccc ccccc ccccc
%c cc cc ccc ccc cccc cccc cccc cccc ccccc ccccc ccccc ccccc
%f  0.0000000  0.000000000  0.00000000000  0.000000000000000
%f  0.0000000  0.000000000  0.00000000000  0.000000000000000
%i    0    0    0    0      0      0      0      0         0
%i    0    0    0    0      0      0      0      0         0
/*      NGA, ST. LOUIS,MO.                                  
/*   EPHEMERIS COMPUTED FROM  3 DAYS OF DATA                
/* CCCCCCCCCCCCCCCCCCCCCCCCCCCCCCCCCCCCCCCCCCCCCCCCCCCCCCCCC
/* CCCCCCCCCCCCCCCCCCCCCCCCCCCCCCCCCCCCCCCCCCCCCCCCCCCCCCCCC
*  2008  7 20 10 30   .00000000                                                 
P  2  21665.973548 -10122.614523 -11305.566008    200.722163                    
V  2  -7880.897487  12339.767041 -26853.330566      -.025270                    
P  3 -14602.203717   6142.053199  21048.438402    258.192805                    
V  3  -9967.990522 -25625.926264    910.107882       .053626                    
P  4  19351.017915    -54.431804 -18443.551009   -120.228250                    
V  4 -15566.711046  17205.567733 -16108.440136      -.099052                    
P  5   2129.445263 -15586.726001 -21681.568079   -342.594933                    
V  5  26516.545646   4738.279218   -672.721307       .275490                    
P  6 -16171.964897    900.474222  21243.779603    162.422529                    
V  6  -7278.588665 -25624.880524  -4511.725962       .031901                    
P  7   -289.535687  18670.032161  18826.651048     -1.747354                    
V  7 -18103.002471  15811.065981 -16011.734154       .052972                    
P  8  11153.650211   9674.441768  22015.255509   -162.504720                    
V  8 -21067.864055  18541.013513   2050.353413      -.015730                    
P  9  13059.556162 -21820.175034  -8038.161731      6.153373                    
V  9   8098.756091  -5235.960878  29892.878780       .017081                    
P 10  23202.017973  -2320.981325  12878.718610     -3.069680                    
V 10  15151.510791   6710.515755 -25493.902859      -.003537                    
P 11  -8727.751928  23757.538789  -7637.890475     23.056263                    
V 11  -9515.705101   5266.124777  28163.251175      -.006622                    
P 12   7649.381059 -13367.587442 -21544.404226   -356.636775                    
V 12  26425.904460   7820.494196   4608.680315       .008239                    
P 13   5884.330906  25892.706726    702.374511    264.523832                    
V 13  -1455.190706   1364.017912 -32481.210920       .014815                    
P 14 -14270.370223 -15835.791312 -15813.729899   -242.018869                    
V 14  -3207.622827 -19949.998242  22622.147722       .044424                    
P 15   9271.321418 -16312.579541  18815.952983   -145.862339                    
V 15   7699.709938  22632.704890  15854.587683      -.063689                    
P 16 -25289.842367  -1452.319832   8395.891295    116.155095                    
V 16  -9427.577244  -5156.755763 -29319.846314      -.017467                    
P 17  15160.207842  15022.614785 -15870.464460     38.679880                    
V 17   3015.343639  20030.533055  21618.273951       .001737                    
P 18 -13007.579179 -16582.455630  16571.804212   -154.329997                    
V 18  20176.751606   4440.398028  20149.684439       .043034                    
P 19  -9954.655472  16565.919412  18216.510063     33.763035                    
V 19  -5895.008614 -22340.731908  17367.938829       .005074                    
P 20  -5922.644292  14506.392968 -21561.229224    109.513929                    
V 20 -26239.176298  -7007.237219   2538.692392      -.008331                    
P 21  -5729.867283 -15633.157345  20781.434118     57.396249                    
V 21  19873.559646 -17044.631317  -8032.281232      -.012871                    
P 22 -23094.388822 -11881.131239   5873.374887    211.477927                    
V 22   7869.347890   -751.049113  30173.959497       .000858                    
P 23  -1236.466031  24232.239994 -10559.822398    365.208978                    
V 23  -5608.556959 -12376.529403 -28173.213640       .017782                    
P 24   9178.379620 -21130.693474  13619.250012    110.847113                    
V 24  14101.424920  -9625.377036 -24466.887043       .028557                    
P 25  -5541.002959  22008.886185  14298.540597   -195.812955                    
V 25 -12616.681022  12221.863796 -24136.358565      -.124865                    
P 26  11348.854409 -11240.219059  20604.452158    295.688099                    
V 26   6569.862264  26578.056042  11142.089665       .067096                    
P 27   3328.537852  17310.751108  20505.616783    204.105949                    
V 27 -17114.653394  17640.936128 -12660.318604       .026099                    
P 28  22478.966479  12474.682264   7721.187771    -21.195088                    
V 28  -9430.896754   -597.552434  29605.987310      -.004175                    
P 29  -4504.461346 -26075.377548  -2359.402555    -41.302914                    
V 29   3474.862561   2397.836451 -31520.611411       .006133                    
P 30  -7480.037874 -16375.467085 -19907.667178     86.855510                    
V 30  24157.528642   4430.946550 -12852.463398       .018904                    
P 31 -19604.911784   2386.245392 -17612.652332    -24.884351                    
V 31  15052.175810 -17062.241147 -18743.893738      -.001957                    
P 32 -13993.716618   9486.434535 -20008.645826    308.331538                    
V 32 -24366.886120 -10223.008764  12109.530236       .027645                    
EOF
